{
    "links": {
        "self": "http://www.neowsapp.com/rest/v1/neo/3736239?api_key=iIulBulltgU6a56xZRHN4H3l9WmuAYTsLGpBGhQ2"
    },
    "id": "3736239",
    "neo_reference_id": "3736239",
    "name": "(2015 XU129)",
    "designation": "2015 XU129",
    "nasa_jpl_url": "http://ssd.jpl.nasa.gov/sbdb.cgi?sstr=3736239",
    "absolute_magnitude_h": 24.7,
    "estimated_diameter": {
        "kilometers": {
            "estimated_diameter_min": 0.0305179233,
            "estimated_diameter_max": 0.0682401509
        },
        "meters": {
            "estimated_diameter_min": 30.5179232594,
            "estimated_diameter_max": 68.2401509401
        },
        "miles": {
            "estimated_diameter_min": 0.0189629525,
            "estimated_diameter_max": 0.0424024508
        },
        "feet": {
            "estimated_diameter_min": 100.1244233463,
            "estimated_diameter_max": 223.8850168104
        }
    },
    "is_potentially_hazardous_asteroid": false,
    "close_approach_data": [
        {
            "close_approach_date": "2015-12-08",
            "close_approach_date_full": "2015-Dec-08 11:38",
            "epoch_date_close_approach": 1449574680000,
            "relative_velocity": {
                "kilometers_per_second": "7.2228230538",
                "kilometers_per_hour": "26002.1629937289",
                "miles_per_hour": "16156.7328890756"
            },
            "miss_distance": {
                "astronomical": "0.1555872724",
                "lunar": "60.5234489636",
                "kilometers": "23275524.550149788",
                "miles": "14462740.3092835544"
            },
            "orbiting_body": "Earth"
        }
    ],
    "orbital_data": {
        "orbit_id": "4",
        "orbit_determination_date": "2017-04-06 08:30:05",
        "first_observation_date": "2015-12-06",
        "last_observation_date": "2015-12-16",
        "data_arc_in_days": 10,
        "observations_used": 15,
        "orbit_uncertainty": "8",
        "minimum_orbit_intersection": ".154374",
        "jupiter_tisserand_invariant": "4.382",
        "epoch_osculation": "2457363.5",
        "eccentricity": ".266255703740422",
        "semi_major_axis": "1.549600636545812",
        "inclination": "13.30798062891269",
        "ascending_node_longitude": "73.27717857978085",
        "orbital_period": "704.5764223438533",
        "perihelion_distance": "1.137010628545701",
        "perihelion_argument": "10.22810481529254",
        "aphelion_distance": "1.962190644545923",
        "perihelion_time": "2457374.307848463283",
        "mean_anomaly": "354.4777808007844",
        "mean_motion": ".5109452836960101",
        "equinox": "J2000",
        "orbit_class": {
            "orbit_class_type": "AMO",
            "orbit_class_description": "Near-Earth asteroid orbits similar to that of 1221 Amor",
            "orbit_class_range": "1.017 AU < q (perihelion) < 1.3 AU"
        }
    },
    "is_sentry_object": false
}